{"type": "FeatureCollection", "features": [ {"type": "Feature", "properties": {"norad_id": 28649, "name": "IRS-P5 (CARTOSAT-1)", "group": "resource", "lat": -50.57429870913643, "lon": 26.414297578199267, "alt_km": 603.6513834292682, "timestamp": "2025-12-16T21:38:56.826148+00:00", "meta": {"OBJECT_NAME": "IRS-P5 (CARTOSAT-1)", "OBJECT_ID": "2005-017A", "EPOCH": "2025-12-16T00:55:54.097248", "MEAN_MOTION": 14.90418122, "ECCENTRICITY": 0.00010536, "INCLINATION": 97.5496, "RA_OF_ASC_NODE": 16.3063, "ARG_OF_PERICENTER": 48.2088, "MEAN_ANOMALY": 311.922, "EPHEMERIS_TYPE": 0, "CLASSIFICATION_TYPE": "U", "NORAD_CAT_ID": 28649, "ELEMENT_SET_NO": 999, "REV_AT_EPOCH": 11653, "BSTAR": 0.00015655838, "MEAN_MOTION_DOT": 1.473e-05, "MEAN_MOTION_DDOT": 0}, "tle": {"line1": "1 28649U 05017A   25350.03882057  .00001473  00000+0  15656-3 0  9990", "line2": "2 28649  97.5496  16.3063 0001053  48.2088 311.9220 14.90418122116535"}}, "geometry": {"type": "Point", "coordinates": [26.414297578199267, -50.57429870913643]}}, {"type": "Feature", "properties": {"norad_id": 28893, "name": "SINAH 1", "group": "resource", "lat": -81.17965316174613, "lon": -129.9575706932059, "alt_km": 696.3802040066621, "timestamp": "2025-12-16T21:38:56.826159+00:00", "meta": {"OBJECT_NAME": "SINAH 1", "OBJECT_ID": "2005-043D", "EPOCH": "2025-12-16T07:18:42.481440", "MEAN_MOTION": 14.63966536, "ECCENTRICITY": 0.00154934, "INCLINATION": 98.2605, "RA_OF_ASC_NODE": 118.8714, "ARG_OF_PERICENTER": 126.5161, "MEAN_ANOMALY": 233.7471, "EPHEMERIS_TYPE": 0, "CLASSIFICATION_TYPE": "U", "NORAD_CAT_ID": 28893, "ELEMENT_SET_NO": 999, "REV_AT_EPOCH": 7376, "BSTAR": 9.1483645e-05, "MEAN_MOTION_DOT": 4.31e-06, "MEAN_MOTION_DDOT": 0}, "tle": {"line1": "1 28893U 05043D   25350.30465835  .00000431  00000+0  91484-4 0  9998", "line2": "2 28893  98.2605 118.8714 0015493 126.5161 233.7471 14.63966536 73765"}}, "geometry": {"type": "Point", "coordinates": [-129.9575706932059, -81.17965316174613]}}, {"type": "Feature", "properties": {"norad_id": 29079, "name": "EROS B", "group": "resource", "lat": 46.260973407900494, "lon": 99.92851162465304, "alt_km": 356.44499499412814, "timestamp": "2025-12-16T21:38:56.826170+00:00", "meta": {"OBJECT_NAME": "EROS B", "OBJECT_ID": "2006-014A", "EPOCH": "2025-12-16T07:40:44.548320", "MEAN_MOTION": 15.6941502, "ECCENTRICITY": 0.00028944, "INCLINATION": 97.3466, "RA_OF_ASC_NODE": 107.0666, "ARG_OF_PERICENTER": 311.0567, "MEAN_ANOMALY": 49.0444, "EPHEMERIS_TYPE": 0, "CLASSIFICATION_TYPE": "U", "NORAD_CAT_ID": 29079, "ELEMENT_SET_NO": 999, "REV_AT_EPOCH": 9136, "BSTAR": 0.0012130894, "MEAN_MOTION_DOT": 0.00144209, "MEAN_MOTION_DDOT": 0}, "tle": {"line1": "1 29079U 06014A   25350.31996005  .00144209  00000+0  12131-2 0  9995", "line2": "2 29079  97.3466 107.0666 0002894 311.0567  49.0444 15.69415020 91363"}}, "geometry": {"type": "Point", "coordinates": [99.92851162465304, 46.260973407900494]}}, {"type": "Feature", "properties": {"norad_id": 29228, "name": "RESURS-DK 1", "group": "resource", "lat": -18.011437149030172, "lon": -82.0918015014386, "alt_km": 531.3024190733067, "timestamp": "2025-12-16T21:38:56.826181+00:00", "meta": {"OBJECT_NAME": "RESURS-DK 1", "OBJECT_ID": "2006-021A", "EPOCH": "2025-12-16T08:04:13.648512", "MEAN_MOTION": 15.12182241, "ECCENTRICITY": 0.00069577, "INCLINATION": 69.9334, "RA_OF_ASC_NODE": 92.5438, "ARG_OF_PERICENTER": 256.1487, "MEAN_ANOMALY": 103.8905, "EPHEMERIS_TYPE": 0, "CLASSIFICATION_TYPE": "U", "NORAD_CAT_ID": 29228, "ELEMENT_SET_NO": 999, "REV_AT_EPOCH": 7492, "BSTAR": 0.00013952849, "MEAN_MOTION_DOT": 2.307e-05, "MEAN_MOTION_DDOT": 0}, "tle": {"line1": "1 29228U 06021A   25350.33626908  .00002307  00000+0  13953-3 0  9999", "line2": "2 29228  69.9334  92.5438 0006957 256.1487 103.8905 15.12182241 74925"}}, "geometry": {"type": "Point", "coordinates": [-82.0918015014386, -18.011437149030172]}}, {"type": "Feature", "properties": {"norad_id": 29268, "name": "ARIRANG-2 (KOMPSAT-2)", "group": "resource", "lat": -0.038484406320154756, "lon": -0.8337178653895172, "alt_km": 685.7104966242541, "timestamp": "2025-12-16T21:38:56.826192+00:00", "meta": {"OBJECT_NAME": "ARIRANG-2 (KOMPSAT-2)", "OBJECT_ID": "2006-031A", "EPOCH": "2025-12-16T09:38:51.700992", "MEAN_MOTION": 14.64497752, "ECCENTRICITY": 0.00133526, "INCLINATION": 97.8261, "RA_OF_ASC_NODE": 178.6961, "ARG_OF_PERICENTER": 296.7975, "MEAN_ANOMALY": 128.4364, "EPHEMERIS_TYPE": 0, "CLASSIFICATION_TYPE": "U", "NORAD_CAT_ID": 29268, "ELEMENT_SET_NO": 999, "REV_AT_EPOCH": 3472, "BSTAR": 9.9138344e-05, "MEAN_MOTION_DOT": 4.81e-06, "MEAN_MOTION_DDOT": 0}, "tle": {"line1": "1 29268U 06031A   25350.40198728  .00000481  00000+0  99138-4 0  9997", "line2": "2 29268  97.8261 178.6961 0013352 296.7975 128.4364 14.64497752 34722"}}, "geometry": {"type": "Point", "coordinates": [-0.8337178653895172, -0.038484406320154756]}}, {"type": "Feature", "properties": {"norad_id": 29709, "name": "LAPAN-TUBSAT", "group": "resource", "lat": 69.98411811378081, "lon": -41.94741490151356, "alt_km": 595.2963754176963, "timestamp": "2025-12-16T21:38:56.826202+00:00", "meta": {"OBJECT_NAME": "LAPAN-TUBSAT", "OBJECT_ID": "2007-001A", "EPOCH": "2025-12-16T06:46:51.299616", "MEAN_MOTION": 14.85679944, "ECCENTRICITY": 0.00136029, "INCLINATION": 98.1257, "RA_OF_ASC_NODE": 340.5123, "ARG_OF_PERICENTER": 63.7431, "MEAN_ANOMALY": 296.518, "EPHEMERIS_TYPE": 0, "CLASSIFICATION_TYPE": "U", "NORAD_CAT_ID": 29709, "ELEMENT_SET_NO": 999, "REV_AT_EPOCH": 2399, "BSTAR": 0.00015780355, "MEAN_MOTION_DOT": 1.313e-05, "MEAN_MOTION_DDOT": 0}, "tle": {"line1": "1 29709U 07001A   25350.28253819  .00001313  00000+0  15780-3 0  9999", "line2": "2 29709  98.1257 340.5123 0013602  63.7431 296.5180 14.85679944 23996"}}, "geometry": {"type": "Point", "coordinates": [-41.94741490151356, 69.98411811378081]}}, {"type": "Feature", "properties": {"norad_id": 31113, "name": "HAIYANG-1B", "group": "resource", "lat": -37.87641031894314, "lon": 148.46317088721426, "alt_km": 804.7691443153808, "timestamp": "2025-12-16T21:38:56.826213+00:00", "meta": {"OBJECT_NAME": "HAIYANG-1B", "OBJECT_ID": "2007-010A", "EPOCH": "2025-12-16T05:31:44.667840", "MEAN_MOTION": 14.30966253, "ECCENTRICITY": 0.00141082, "INCLINATION": 98.3317, "RA_OF_ASC_NODE": 334.3643, "ARG_OF_PERICENTER": 28.1438, "MEAN_ANOMALY": 332.0505, "EPHEMERIS_TYPE": 0, "CLASSIFICATION_TYPE": "U", "NORAD_CAT_ID": 31113, "ELEMENT_SET_NO": 999, "REV_AT_EPOCH": 97446, "BSTAR": 6.318835e-05, "MEAN_MOTION_DOT": 1.25e-06, "MEAN_MOTION_DDOT": 0}, "tle": {"line1": "1 31113U 07010A   25350.23037810  .00000125  00000+0  63188-4 0  9993", "line2": "2 31113  98.3317 334.3643 0014108  28.1438 332.0505 14.30966253974465"}}, "geometry": {"type": "Point", "coordinates": [148.46317088721426, -37.87641031894314]}}, {"type": "Feature", "properties": {"norad_id": 31598, "name": "COSMO-SKYMED 1", "group": "resource", "lat": 1.0039326997556897, "lon": -3.5329146976981787, "alt_km": 582.8455048545575, "timestamp": "2025-12-16T21:38:56.826224+00:00", "meta": {"OBJECT_NAME": "COSMO-SKYMED 1", "OBJECT_ID": "2007-023A", "EPOCH": "2025-12-16T08:00:29.583936", "MEAN_MOTION": 14.95793559, "ECCENTRICITY": 0.00014789, "INCLINATION": 97.8834, "RA_OF_ASC_NODE": 175.7561, "ARG_OF_PERICENTER": 88.7318, "MEAN_ANOMALY": 271.4072, "EPHEMERIS_TYPE": 0, "CLASSIFICATION_TYPE": "U", "NORAD_CAT_ID": 31598, "ELEMENT_SET_NO": 999, "REV_AT_EPOCH": 244, "BSTAR": 0.00032589097, "MEAN_MOTION_DOT": 3.577e-05, "MEAN_MOTION_DDOT": 0}, "tle": {"line1": "1 31598U 07023A   25350.33367574  .00003577  00000+0  32589-3 0  9992", "line2": "2 31598  97.8834 175.7561 0001478  88.7318 271.4072 14.95793559  2444"}}, "geometry": {"type": "Point", "coordinates": [-3.5329146976981787, 1.0039326997556897]}}, {"type": "Feature", "properties": {"norad_id": 31698, "name": "TERRASAR-X", "group": "resource", "lat": -4.313039652298841, "lon": 175.656268419031, "alt_km": 512.294656270783, "timestamp": "2025-12-16T21:38:56.826235+00:00", "meta": {"OBJECT_NAME": "TERRASAR-X", "OBJECT_ID": "2007-026A", "EPOCH": "2025-12-15T11:38:35.503296", "MEAN_MOTION": 15.19146195, "ECCENTRICITY": 0.00016725, "INCLINATION": 97.4453, "RA_OF_ASC_NODE": 354.825, "ARG_OF_PERICENTER": 86.3192, "MEAN_ANOMALY": 273.8234, "EPHEMERIS_TYPE": 0, "CLASSIFICATION_TYPE": "U", "NORAD_CAT_ID": 31698, "ELEMENT_SET_NO": 999, "REV_AT_EPOCH": 2533, "BSTAR": 7.6554338e-05, "MEAN_MOTION_DOT": 1.541e-05, "MEAN_MOTION_DDOT": 0}, "tle": {"line1": "1 31698U 07026A   25349.48513314  .00001541  00000+0  76554-4 0  9995", "line2": "2 31698  97.4453 354.8250 0001672  86.3192 273.8234 15.19146195 25337"}}, "geometry": {"type": "Point", "coordinates": [175.656268419031, -4.313039652298841]}}, {"type": "Feature", "properties": {"norad_id": 32060, "name": "WORLDVIEW-1 (WV-1)", "group": "resource", "lat": -82.53877792644518, "lon": -153.64217634018078, "alt_km": 499.4177305004232, "timestamp": "2025-12-16T21:38:56.826245+00:00", "meta": {"OBJECT_NAME": "WORLDVIEW-1 (WV-1)", "OBJECT_ID": "2007-041A", "EPOCH": "2025-12-16T07:52:21.788544", "MEAN_MOTION": 15.2475071, "ECCENTRICITY": 8.409e-05, "INCLINATION": 97.3837, "RA_OF_ASC_NODE": 107.7585, "ARG_OF_PERICENTER": 113.6385, "MEAN_ANOMALY": 246.4942, "EPHEMERIS_TYPE": 0, "CLASSIFICATION_TYPE": "U", "NORAD_CAT_ID": 32060, "ELEMENT_SET_NO": 999, "REV_AT_EPOCH": 1502, "BSTAR": 0.00026028215, "MEAN_MOTION_DOT": 6.376e-05, "MEAN_MOTION_DDOT": 0}, "tle": {"line1": "1 32060U 07041A   25350.32802996  .00006376  00000+0  26028-3 0  9999", "line2": "2 32060  97.3837 107.7585 0000840 113.6385 246.4942 15.24750710 15023"}}, "geometry": {"type": "Point", "coordinates": [-153.64217634018078, -82.53877792644518]}}]}